{"type": "FeatureCollection", "features": [ {"type": "Feature", "properties": {"norad_id": 51444, "name": "CSG-2", "group": "resource", "lat": -23.89550970162542, "lon": -15.86729927658171, "alt_km": 628.592557744284, "timestamp": "2025-12-12T07:43:20.161457+00:00", "meta": {"OBJECT_NAME": "CSG-2", "OBJECT_ID": "2022-008A", "EPOCH": "2025-12-12T00:19:25.519584", "MEAN_MOTION": 14.82165088, "ECCENTRICITY": 0.00015391, "INCLINATION": 97.8808, "RA_OF_ASC_NODE": 167.3475, "ARG_OF_PERICENTER": 83.9415, "MEAN_ANOMALY": 276.1973, "EPHEMERIS_TYPE": 0, "CLASSIFICATION_TYPE": "U", "NORAD_CAT_ID": 51444, "ELEMENT_SET_NO": 999, "REV_AT_EPOCH": 20886, "BSTAR": 0.0001906229, "MEAN_MOTION_DOT": 1.466e-05, "MEAN_MOTION_DDOT": 0}, "tle": {"line1": "1 51444U 22008A   25346.01348981  .00001466  00000+0  19062-3 0  9991", "line2": "2 51444  97.8808 167.3475 0001539  83.9415 276.1973 14.82165088208863"}}, "geometry": {"type": "Point", "coordinates": [-15.86729927658171, -23.89550970162542]}}, {"type": "Feature", "properties": {"norad_id": 52912, "name": "GAOFEN-12 03", "group": "resource", "lat": 54.763190485714745, "lon": 64.94015660702208, "alt_km": 624.6722811686714, "timestamp": "2025-12-12T07:43:20.161467+00:00", "meta": {"OBJECT_NAME": "GAOFEN-12 03", "OBJECT_ID": "2022-069A", "EPOCH": "2025-12-11T23:02:49.068096", "MEAN_MOTION": 14.79606586, "ECCENTRICITY": 0.00022026, "INCLINATION": 97.8478, "RA_OF_ASC_NODE": 233.3275, "ARG_OF_PERICENTER": 62.8782, "MEAN_ANOMALY": 297.2654, "EPHEMERIS_TYPE": 0, "CLASSIFICATION_TYPE": "U", "NORAD_CAT_ID": 52912, "ELEMENT_SET_NO": 999, "REV_AT_EPOCH": 18692, "BSTAR": 0.00029039225, "MEAN_MOTION_DOT": 2.126e-05, "MEAN_MOTION_DDOT": 0}, "tle": {"line1": "1 52912U 22069A   25345.96029014  .00002126  00000+0  29039-3 0  9994", "line2": "2 52912  97.8478 233.3275 0002202  62.8782 297.2654 14.79606586186921"}}, "geometry": {"type": "Point", "coordinates": [64.94015660702208, 54.763190485714745]}}, {"type": "Feature", "properties": {"norad_id": 54754, "name": "SWOT", "group": "resource", "lat": -38.169685257489796, "lon": 117.50362787070024, "alt_km": 899.4770713798889, "timestamp": "2025-12-12T07:43:20.161477+00:00", "meta": {"OBJECT_NAME": "SWOT", "OBJECT_ID": "2022-173A", "EPOCH": "2025-12-11T23:49:09.406272", "MEAN_MOTION": 14.00174518, "ECCENTRICITY": 3.347e-05, "INCLINATION": 77.6106, "RA_OF_ASC_NODE": 287.9983, "ARG_OF_PERICENTER": 113.3645, "MEAN_ANOMALY": 246.7542, "EPHEMERIS_TYPE": 0, "CLASSIFICATION_TYPE": "U", "NORAD_CAT_ID": 54754, "ELEMENT_SET_NO": 999, "REV_AT_EPOCH": 15295, "BSTAR": 4.4055579e-05, "MEAN_MOTION_DOT": 6.2e-07, "MEAN_MOTION_DDOT": 0}, "tle": {"line1": "1 54754U 22173A   25345.99246998  .00000062  00000+0  44056-4 0  9995", "line2": "2 54754  77.6106 287.9983 0000334 113.3645 246.7542 14.00174518152956"}}, "geometry": {"type": "Point", "coordinates": [117.50362787070024, -38.169685257489796]}}, {"type": "Feature", "properties": {"norad_id": 57654, "name": "GAOFEN-12 04", "group": "resource", "lat": -65.02011391476374, "lon": -80.54773904390271, "alt_km": 638.2136725413093, "timestamp": "2025-12-12T07:43:20.161487+00:00", "meta": {"OBJECT_NAME": "GAOFEN-12 04", "OBJECT_ID": "2023-123A", "EPOCH": "2025-12-11T23:54:23.304384", "MEAN_MOTION": 14.79697278, "ECCENTRICITY": 0.00013347, "INCLINATION": 97.9116, "RA_OF_ASC_NODE": 261.7646, "ARG_OF_PERICENTER": 74.3989, "MEAN_ANOMALY": 285.737, "EPHEMERIS_TYPE": 0, "CLASSIFICATION_TYPE": "U", "NORAD_CAT_ID": 57654, "ELEMENT_SET_NO": 999, "REV_AT_EPOCH": 12494, "BSTAR": 0.00033293012, "MEAN_MOTION_DOT": 2.449e-05, "MEAN_MOTION_DDOT": 0}, "tle": {"line1": "1 57654U 23123A   25345.99610306  .00002449  00000+0  33293-3 0  9992", "line2": "2 57654  97.9116 261.7646 0001334  74.3989 285.7370 14.79697278124947"}}, "geometry": {"type": "Point", "coordinates": [-80.54773904390271, -65.02011391476374]}}, {"type": "Feature", "properties": {"norad_id": 59065, "name": "PARS 1", "group": "resource", "lat": -57.732448308082105, "lon": 125.2619290560584, "alt_km": 458.7292422058217, "timestamp": "2025-12-12T07:43:20.161497+00:00", "meta": {"OBJECT_NAME": "PARS 1", "OBJECT_ID": "2024-039Q", "EPOCH": "2025-12-12T00:27:26.417664", "MEAN_MOTION": 15.40947844, "ECCENTRICITY": 0.0012598, "INCLINATION": 97.4636, "RA_OF_ASC_NODE": 316.9368, "ARG_OF_PERICENTER": 74.3977, "MEAN_ANOMALY": 285.8659, "EPHEMERIS_TYPE": 0, "CLASSIFICATION_TYPE": "U", "NORAD_CAT_ID": 59065, "ELEMENT_SET_NO": 999, "REV_AT_EPOCH": 9977, "BSTAR": 0.0004018737, "MEAN_MOTION_DOT": 0.00016515, "MEAN_MOTION_DDOT": 0}, "tle": {"line1": "1 59065U 24039Q   25346.01905576  .00016515  00000+0  40187-3 0  9996", "line2": "2 59065  97.4636 316.9368 0012598  74.3977 285.8659 15.40947844 99771"}}, "geometry": {"type": "Point", "coordinates": [125.2619290560584, -57.732448308082105]}}, {"type": "Feature", "properties": {"norad_id": 59371, "name": "RESURS-P 4", "group": "resource", "lat": 33.435084367205064, "lon": -72.16390343005864, "alt_km": 466.6001651897832, "timestamp": "2025-12-12T07:43:20.161507+00:00", "meta": {"OBJECT_NAME": "RESURS-P 4", "OBJECT_ID": "2024-061A", "EPOCH": "2025-12-11T23:44:16.537920", "MEAN_MOTION": 15.32075702, "ECCENTRICITY": 0.00015631, "INCLINATION": 97.254, "RA_OF_ASC_NODE": 292.3346, "ARG_OF_PERICENTER": 52.3854, "MEAN_ANOMALY": 307.753, "EPHEMERIS_TYPE": 0, "CLASSIFICATION_TYPE": "U", "NORAD_CAT_ID": 59371, "ELEMENT_SET_NO": 999, "REV_AT_EPOCH": 9509, "BSTAR": 0.00019982347, "MEAN_MOTION_DOT": 6.112e-05, "MEAN_MOTION_DDOT": 0}, "tle": {"line1": "1 59371U 24061A   25345.98908030  .00006112  00000+0  19982-3 0  9995", "line2": "2 59371  97.2540 292.3346 0001563  52.3854 307.7530 15.32075702 95095"}}, "geometry": {"type": "Point", "coordinates": [-72.16390343005864, 33.435084367205064]}}, {"type": "Feature", "properties": {"norad_id": 59625, "name": "LEGION 1", "group": "resource", "lat": -75.65217871025051, "lon": 92.06304929583675, "alt_km": 521.6973467131511, "timestamp": "2025-12-12T07:43:20.161518+00:00", "meta": {"OBJECT_NAME": "LEGION 1", "OBJECT_ID": "2024-081A", "EPOCH": "2025-12-12T00:08:46.735008", "MEAN_MOTION": 15.16469285, "ECCENTRICITY": 0.00039832, "INCLINATION": 97.5212, "RA_OF_ASC_NODE": 60.6504, "ARG_OF_PERICENTER": 321.9003, "MEAN_ANOMALY": 38.1948, "EPHEMERIS_TYPE": 0, "CLASSIFICATION_TYPE": "U", "NORAD_CAT_ID": 59625, "ELEMENT_SET_NO": 999, "REV_AT_EPOCH": 8916, "BSTAR": 0.00039653198, "MEAN_MOTION_DOT": 7.654e-05, "MEAN_MOTION_DDOT": 0}, "tle": {"line1": "1 59625U 24081A   25346.00609647  .00007654  00000+0  39653-3 0  9994", "line2": "2 59625  97.5212  60.6504 0003983 321.9003  38.1948 15.16469285 89161"}}, "geometry": {"type": "Point", "coordinates": [92.06304929583675, -75.65217871025051]}}, {"type": "Feature", "properties": {"norad_id": 59626, "name": "LEGION 2", "group": "resource", "lat": 75.79359800215478, "lon": -87.49028071516355, "alt_km": 513.1832076375431, "timestamp": "2025-12-12T07:43:20.161528+00:00", "meta": {"OBJECT_NAME": "LEGION 2", "OBJECT_ID": "2024-081B", "EPOCH": "2025-12-11T21:46:19.050816", "MEAN_MOTION": 15.16477995, "ECCENTRICITY": 0.00057782, "INCLINATION": 97.5212, "RA_OF_ASC_NODE": 60.6395, "ARG_OF_PERICENTER": 296.9578, "MEAN_ANOMALY": 63.1065, "EPHEMERIS_TYPE": 0, "CLASSIFICATION_TYPE": "U", "NORAD_CAT_ID": 59626, "ELEMENT_SET_NO": 999, "REV_AT_EPOCH": 8915, "BSTAR": 0.00041609596, "MEAN_MOTION_DOT": 8.039e-05, "MEAN_MOTION_DDOT": 0}, "tle": {"line1": "1 59626U 24081B   25345.90716494  .00008039  00000+0  41610-3 0  9996", "line2": "2 59626  97.5212  60.6395 0005778 296.9578  63.1065 15.16477995 89156"}}, "geometry": {"type": "Point", "coordinates": [-87.49028071516355, 75.79359800215478]}}, {"type": "Feature", "properties": {"norad_id": 60182, "name": "ALOS-4 (DAICHI-4)", "group": "resource", "lat": 4.9298357656907426, "lon": -98.13721131830815, "alt_km": 633.0984512126961, "timestamp": "2025-12-12T07:43:20.161538+00:00", "meta": {"OBJECT_NAME": "ALOS-4 (DAICHI-4)", "OBJECT_ID": "2024-123A", "EPOCH": "2025-12-10T20:50:51.532800", "MEAN_MOTION": 14.79478132, "ECCENTRICITY": 0.0001419, "INCLINATION": 97.9225, "RA_OF_ASC_NODE": 79.7424, "ARG_OF_PERICENTER": 101.2045, "MEAN_ANOMALY": 258.9326, "EPHEMERIS_TYPE": 0, "CLASSIFICATION_TYPE": "U", "NORAD_CAT_ID": 60182, "ELEMENT_SET_NO": 999, "REV_AT_EPOCH": 7803, "BSTAR": 0.00039567, "MEAN_MOTION_DOT": 2.905e-05, "MEAN_MOTION_DDOT": 0}, "tle": {"line1": "1 60182U 24123A   25344.86865200  .00002905  00000+0  39567-3 0  9990", "line2": "2 60182  97.9225  79.7424 0001419 101.2045 258.9326 14.79478132 78033"}}, "geometry": {"type": "Point", "coordinates": [-98.13721131830815, 4.9298357656907426]}}, {"type": "Feature", "properties": {"norad_id": 60452, "name": "LEGION 3", "group": "resource", "lat": 22.24623656867717, "lon": 108.21239508782548, "alt_km": 508.7047202388676, "timestamp": "2025-12-12T07:43:20.161549+00:00", "meta": {"OBJECT_NAME": "LEGION 3", "OBJECT_ID": "2024-146A", "EPOCH": "2025-12-11T23:09:53.997120", "MEAN_MOTION": 15.15747852, "ECCENTRICITY": 0.0014796, "INCLINATION": 45.0018, "RA_OF_ASC_NODE": 314.2851, "ARG_OF_PERICENTER": 194.5448, "MEAN_ANOMALY": 165.5007, "EPHEMERIS_TYPE": 0, "CLASSIFICATION_TYPE": "U", "NORAD_CAT_ID": 60452, "ELEMENT_SET_NO": 999, "REV_AT_EPOCH": 7361, "BSTAR": 0.00041411498, "MEAN_MOTION_DOT": 7.795e-05, "MEAN_MOTION_DDOT": 0}, "tle": {"line1": "1 60452U 24146A   25345.96520830  .00007795  00000+0  41411-3 0  9997", "line2": "2 60452  45.0018 314.2851 0014796 194.5448 165.5007 15.15747852 73619"}}, "geometry": {"type": "Point", "coordinates": [108.21239508782548, 22.24623656867717]}}]}